{"type": "FeatureCollection", "features": [ {"type": "Feature", "properties": {"norad_id": 30888, "name": "FENGYUN 1C DEB", "group": "fengyun-1c-debris", "lat": -6.840667417401187, "lon": -45.45189645934973, "alt_km": 647.632022228182, "timestamp": "2025-12-02T15:49:07.469210+00:00", "meta": {"OBJECT_NAME": "FENGYUN 1C DEB", "OBJECT_ID": "1999-025AYA", "EPOCH": "2025-12-01T09:17:58.437888", "MEAN_MOTION": 14.93478057, "ECCENTRICITY": 0.00828382, "INCLINATION": 99.4822, "RA_OF_ASC_NODE": 311.8677, "ARG_OF_PERICENTER": 187.1359, "MEAN_ANOMALY": 172.8682, "EPHEMERIS_TYPE": 0, "CLASSIFICATION_TYPE": "U", "NORAD_CAT_ID": 30888, "ELEMENT_SET_NO": 999, "REV_AT_EPOCH": 99756, "BSTAR": 0.0012545808, "MEAN_MOTION_DOT": 0.00014057, "MEAN_MOTION_DDOT": 0}, "tle": {"line1": "1 30888U 99025AYA 25335.38748192  .00014057  00000+0  12546-2 0  9998", "line2": "2 30888  99.4822 311.8677 0082838 187.1359 172.8682 14.93478057997567"}}, "geometry": {"type": "Point", "coordinates": [-45.45189645934973, -6.840667417401187]}}, {"type": "Feature", "properties": {"norad_id": 30891, "name": "FENGYUN 1C DEB", "group": "fengyun-1c-debris", "lat": -35.34055938649951, "lon": -161.7124721847606, "alt_km": 840.113900802673, "timestamp": "2025-12-02T15:49:07.469232+00:00", "meta": {"OBJECT_NAME": "FENGYUN 1C DEB", "OBJECT_ID": "1999-025AYD", "EPOCH": "2025-12-02T02:58:17.770656", "MEAN_MOTION": 14.05825711, "ECCENTRICITY": 0.00548456, "INCLINATION": 98.7861, "RA_OF_ASC_NODE": 24.0646, "ARG_OF_PERICENTER": 217.5354, "MEAN_ANOMALY": 170.5682, "EPHEMERIS_TYPE": 0, "CLASSIFICATION_TYPE": "U", "NORAD_CAT_ID": 30891, "ELEMENT_SET_NO": 999, "REV_AT_EPOCH": 95833, "BSTAR": 0.00084285691, "MEAN_MOTION_DOT": 1.353e-05, "MEAN_MOTION_DDOT": 0}, "tle": {"line1": "1 30891U 99025AYD 25336.12381679  .00001353  00000+0  84286-3 0  9994", "line2": "2 30891  98.7861  24.0646 0054845 217.5354 170.5682 14.05825711958338"}}, "geometry": {"type": "Point", "coordinates": [-161.7124721847606, -35.34055938649951]}}, {"type": "Feature", "properties": {"norad_id": 30892, "name": "FENGYUN 1C DEB", "group": "fengyun-1c-debris", "lat": 12.456247108298333, "lon": -83.21507190420353, "alt_km": 854.7779290645813, "timestamp": "2025-12-02T15:49:07.469243+00:00", "meta": {"OBJECT_NAME": "FENGYUN 1C DEB", "OBJECT_ID": "1999-025AYE", "EPOCH": "2025-12-02T02:13:11.454816", "MEAN_MOTION": 14.18891821, "ECCENTRICITY": 0.00376143, "INCLINATION": 99.6617, "RA_OF_ASC_NODE": 278.3246, "ARG_OF_PERICENTER": 219.3415, "MEAN_ANOMALY": 140.5024, "EPHEMERIS_TYPE": 0, "CLASSIFICATION_TYPE": "U", "NORAD_CAT_ID": 30892, "ELEMENT_SET_NO": 999, "REV_AT_EPOCH": 64152, "BSTAR": 0.0004842513, "MEAN_MOTION_DOT": 9.64e-06, "MEAN_MOTION_DDOT": 0}, "tle": {"line1": "1 30892U 99025AYE 25336.09249369  .00000964  00000+0  48425-3 0  9992", "line2": "2 30892  99.6617 278.3246 0037614 219.3415 140.5024 14.18891821641527"}}, "geometry": {"type": "Point", "coordinates": [-83.21507190420353, 12.456247108298333]}}, {"type": "Feature", "properties": {"norad_id": 30893, "name": "FENGYUN 1C DEB", "group": "fengyun-1c-debris", "lat": -79.71944812455216, "lon": 58.08318915769242, "alt_km": 1125.6052330922648, "timestamp": "2025-12-02T15:49:07.469254+00:00", "meta": {"OBJECT_NAME": "FENGYUN 1C DEB", "OBJECT_ID": "1999-025AYF", "EPOCH": "2025-12-02T07:42:31.344768", "MEAN_MOTION": 13.94021786, "ECCENTRICITY": 0.03098566, "INCLINATION": 98.2586, "RA_OF_ASC_NODE": 4.5805, "ARG_OF_PERICENTER": 122.0136, "MEAN_ANOMALY": 257.7195, "EPHEMERIS_TYPE": 0, "CLASSIFICATION_TYPE": "U", "NORAD_CAT_ID": 30893, "ELEMENT_SET_NO": 999, "REV_AT_EPOCH": 94740, "BSTAR": 0.0008618927, "MEAN_MOTION_DOT": 1.663e-05, "MEAN_MOTION_DDOT": 0}, "tle": {"line1": "1 30893U 99025AYF 25336.32119612  .00001663  00000+0  86189-3 0  9992", "line2": "2 30893  98.2586   4.5805 0309856 122.0136 257.7195 13.94021786947402"}}, "geometry": {"type": "Point", "coordinates": [58.08318915769242, -79.71944812455216]}}, {"type": "Feature", "properties": {"norad_id": 30895, "name": "FENGYUN 1C DEB", "group": "fengyun-1c-debris", "lat": -69.65177175085834, "lon": -159.34997813333698, "alt_km": 812.1370860996258, "timestamp": "2025-12-02T15:49:07.469265+00:00", "meta": {"OBJECT_NAME": "FENGYUN 1C DEB", "OBJECT_ID": "1999-025AYH", "EPOCH": "2025-12-01T03:34:50.104992", "MEAN_MOTION": 14.31491493, "ECCENTRICITY": 0.02179299, "INCLINATION": 98.7211, "RA_OF_ASC_NODE": 43.5818, "ARG_OF_PERICENTER": 158.0221, "MEAN_ANOMALY": 234.2314, "EPHEMERIS_TYPE": 0, "CLASSIFICATION_TYPE": "U", "NORAD_CAT_ID": 30895, "ELEMENT_SET_NO": 999, "REV_AT_EPOCH": 97627, "BSTAR": 0.00052912471, "MEAN_MOTION_DOT": 1.775e-05, "MEAN_MOTION_DDOT": 0}, "tle": {"line1": "1 30895U 99025AYH 25335.14919103  .00001775  00000+0  52912-3 0  9997", "line2": "2 30895  98.7211  43.5818 0217929 158.0221 234.2314 14.31491493976272"}}, "geometry": {"type": "Point", "coordinates": [-159.34997813333698, -69.65177175085834]}}, {"type": "Feature", "properties": {"norad_id": 30898, "name": "FENGYUN 1C DEB", "group": "fengyun-1c-debris", "lat": 34.367258667403476, "lon": -120.11145602406674, "alt_km": 512.1567974623213, "timestamp": "2025-12-02T15:49:07.469275+00:00", "meta": {"OBJECT_NAME": "FENGYUN 1C DEB", "OBJECT_ID": "1999-025AYL", "EPOCH": "2025-12-01T23:52:01.976448", "MEAN_MOTION": 15.20079673, "ECCENTRICITY": 0.00399108, "INCLINATION": 99.0257, "RA_OF_ASC_NODE": 245.335, "ARG_OF_PERICENTER": 146.5036, "MEAN_ANOMALY": 213.873, "EPHEMERIS_TYPE": 0, "CLASSIFICATION_TYPE": "U", "NORAD_CAT_ID": 30898, "ELEMENT_SET_NO": 999, "REV_AT_EPOCH": 66208, "BSTAR": 0.00270501, "MEAN_MOTION_DOT": 0.00060002, "MEAN_MOTION_DDOT": 0}, "tle": {"line1": "1 30898U 99025AYL 25335.99446732  .00060002  00000+0  27050-2 0  9998", "line2": "2 30898  99.0257 245.3350 0039910 146.5036 213.8730 15.20079673662087"}}, "geometry": {"type": "Point", "coordinates": [-120.11145602406674, 34.367258667403476]}}, {"type": "Feature", "properties": {"norad_id": 30903, "name": "FENGYUN 1C DEB", "group": "fengyun-1c-debris", "lat": -52.935357672392165, "lon": 29.434531722774956, "alt_km": 936.4627041751501, "timestamp": "2025-12-02T15:49:07.469286+00:00", "meta": {"OBJECT_NAME": "FENGYUN 1C DEB", "OBJECT_ID": "1999-025AYR", "EPOCH": "2025-11-19T22:35:30.773760", "MEAN_MOTION": 13.97581748, "ECCENTRICITY": 0.00962599, "INCLINATION": 99.3712, "RA_OF_ASC_NODE": 209.0935, "ARG_OF_PERICENTER": 154.9876, "MEAN_ANOMALY": 205.5995, "EPHEMERIS_TYPE": 0, "CLASSIFICATION_TYPE": "U", "NORAD_CAT_ID": 30903, "ELEMENT_SET_NO": 999, "REV_AT_EPOCH": 68386, "BSTAR": -3.6983637e-05, "MEAN_MOTION_DOT": -1e-06, "MEAN_MOTION_DDOT": 0}, "tle": {"line1": "1 30903U 99025AYR 25323.94132840 -.00000100  00000+0 -36984-4 0  9992", "line2": "2 30903  99.3712 209.0935 0096259 154.9876 205.5995 13.97581748683866"}}, "geometry": {"type": "Point", "coordinates": [29.434531722774956, -52.935357672392165]}}, {"type": "Feature", "properties": {"norad_id": 30905, "name": "FENGYUN 1C DEB", "group": "fengyun-1c-debris", "lat": -33.98819270900026, "lon": -134.00946654201877, "alt_km": 849.7351847904529, "timestamp": "2025-12-02T15:49:07.469297+00:00", "meta": {"OBJECT_NAME": "FENGYUN 1C DEB", "OBJECT_ID": "1999-025AYT", "EPOCH": "2025-11-30T00:08:46.442976", "MEAN_MOTION": 14.17721969, "ECCENTRICITY": 0.00573795, "INCLINATION": 98.8903, "RA_OF_ASC_NODE": 49.3935, "ARG_OF_PERICENTER": 116.7587, "MEAN_ANOMALY": 243.9475, "EPHEMERIS_TYPE": 0, "CLASSIFICATION_TYPE": "U", "NORAD_CAT_ID": 30905, "ELEMENT_SET_NO": 999, "REV_AT_EPOCH": 95942, "BSTAR": 0.0019476462, "MEAN_MOTION_DOT": 3.99e-05, "MEAN_MOTION_DDOT": 0}, "tle": {"line1": "1 30905U 99025AYT 25334.00609309  .00003990  00000+0  19476-2 0  9995", "line2": "2 30905  98.8903  49.3935 0057379 116.7587 243.9475 14.17721969959425"}}, "geometry": {"type": "Point", "coordinates": [-134.00946654201877, -33.98819270900026]}}, {"type": "Feature", "properties": {"norad_id": 30912, "name": "FENGYUN 1C DEB", "group": "fengyun-1c-debris", "lat": 61.60037431160188, "lon": 159.52940261391907, "alt_km": 578.9194269011696, "timestamp": "2025-12-02T15:49:07.469308+00:00", "meta": {"OBJECT_NAME": "FENGYUN 1C DEB", "OBJECT_ID": "1999-025AZA", "EPOCH": "2025-12-01T12:07:03.178560", "MEAN_MOTION": 14.88890377, "ECCENTRICITY": 0.00592358, "INCLINATION": 98.9969, "RA_OF_ASC_NODE": 175.2586, "ARG_OF_PERICENTER": 133.7168, "MEAN_ANOMALY": 226.8973, "EPHEMERIS_TYPE": 0, "CLASSIFICATION_TYPE": "U", "NORAD_CAT_ID": 30912, "ELEMENT_SET_NO": 999, "REV_AT_EPOCH": 99237, "BSTAR": 0.001876881, "MEAN_MOTION_DOT": 0.00018163, "MEAN_MOTION_DDOT": 0}, "tle": {"line1": "1 30912U 99025AZA 25335.50489790  .00018163  00000+0  18769-2 0  9991", "line2": "2 30912  98.9969 175.2586 0059235 133.7168 226.8973 14.88890377992376"}}, "geometry": {"type": "Point", "coordinates": [159.52940261391907, 61.60037431160188]}}, {"type": "Feature", "properties": {"norad_id": 30913, "name": "FENGYUN 1C DEB", "group": "fengyun-1c-debris", "lat": 42.69627098914868, "lon": -4.199063067459301, "alt_km": 907.2034144488998, "timestamp": "2025-12-02T15:49:07.469318+00:00", "meta": {"OBJECT_NAME": "FENGYUN 1C DEB", "OBJECT_ID": "1999-025AZB", "EPOCH": "2025-12-02T07:03:54.363744", "MEAN_MOTION": 14.04917681, "ECCENTRICITY": 0.00482467, "INCLINATION": 98.7471, "RA_OF_ASC_NODE": 3.6159, "ARG_OF_PERICENTER": 210.465, "MEAN_ANOMALY": 149.3713, "EPHEMERIS_TYPE": 0, "CLASSIFICATION_TYPE": "U", "NORAD_CAT_ID": 30913, "ELEMENT_SET_NO": 999, "REV_AT_EPOCH": 95771, "BSTAR": 0.00091911106, "MEAN_MOTION_DOT": 1.45e-05, "MEAN_MOTION_DDOT": 0}, "tle": {"line1": "1 30913U 99025AZB 25336.29437921  .00001450  00000+0  91911-3 0  9990", "line2": "2 30913  98.7471   3.6159 0048246 210.4650 149.3713 14.04917681957718"}}, "geometry": {"type": "Point", "coordinates": [-4.199063067459301, 42.69627098914868]}}]}